HELIOS 2A               
1 28492U 04049A   22321.36448147  .00002274  00000+0  22120-3 0  9993
2 28492  98.2517 271.6756 0012854 303.7671  56.2321 14.93600026957944
SPIRALE A               
1 33751U 09008C   22320.62336336  .00000166  00000+0  51115-3 0  9995
2 33751   2.0429 109.0975 5455606 175.1096 193.9859  4.58887149201808
SPIRALE B               
1 33752U 09008D   22320.89093510  .00001751  00000+0  76212-3 0  9995
2 33752   2.2198  34.9291 6840238 313.7513   7.0141  2.83409261129444
SAPPHIRE                
1 39088U 13009C   22321.12029783  .00000096  00000+0  49288-4 0  9992
2 39088  98.4183 153.0282 0011371 177.3135 182.8113 14.34343336509028
